[{"OBJECT_NAME":"LEMUR-2-GRAM-E-SUE","OBJECT_ID":"2026-004H","EPOCH":"2026-03-09T22:14:14.369280","MEAN_MOTION":14.87820333,"ECCENTRICITY":0.00087695,"INCLINATION":97.7976,"RA_OF_ASC_NODE":69.0865,"ARG_OF_PERICENTER":107.9643,"MEAN_ANOMALY":252.2531,"EPHEMERIS_TYPE":0,"CLASSIFICATION_TYPE":"U","NORAD_CAT_ID":67370,"ELEMENT_SET_NO":999,"REV_AT_EPOCH":853,"BSTAR":0.00070013244,"MEAN_MOTION_DOT":6.35e-5,"MEAN_MOTION_DDOT":0},{"OBJECT_NAME":"PEGASUS DEB","OBJECT_ID":"1994-029ADD","EPOCH":"2026-03-08T10:25:15.653280","MEAN_MOTION":14.68059496,"ECCENTRICITY":0.01955808,"INCLINATION":82.165,"RA_OF_ASC_NODE":108.7718,"ARG_OF_PERICENTER":24.3577,"MEAN_ANOMALY":336.6717,"EPHEMERIS_TYPE":0,"CLASSIFICATION_TYPE":"U","NORAD_CAT_ID":24996,"ELEMENT_SET_NO":999,"REV_AT_EPOCH":48270,"BSTAR":0.0033498842,"MEAN_MOTION_DOT":0.00025801,"MEAN_MOTION_DDOT":0}]
